Messort_Code;Messort_Name;Messort_Typ;Latitude;Longitude;Latitude_WGS84;Longitude_WGS84;X_LV95;Y_LV95;Messintervall;Gemeinde;Strasse_Nr;PLZ
1;Schulhaus Werd;Schulhaus;47 18 57.4;8 31 39.1;47.31594444;8.527527778;2682328;1241134;Wiederholungsmessung;Adliswil;NA;NA
2;Schulhaus im Bruggen;Schulhaus;47 19 23.2;8 28 14.3;47.32311111;8.470638889;2678016;1241873;Wiederholungsmessung;Bonstetten;NA;NA
3;Schulhaus Luberzen;Schulhaus;47 23 48.5;8 25 17.7;47.39680556;8.421583333;2674205;1250018;Wiederholungsmessung;Dietikon;NA;NA
4;Schulhaus Spilbrett;Schulhaus;47 41 30.0;8 38 21.0;47.69166667;8.639166667;2690129;1283028;Wiederholungsmessung;Feuerthalen;NA;NA
5;Bahnhof Feuerthalen;Bahnhof;47 41 31.1;8 38 45.9;47.69197222;8.646083333;2690647;1283070;Wiederholungsmessung;Feuerthalen;NA;NA
6;Schulhaus Hinterwiden;Schulhaus;47 26 46.9;8 34 31.8;47.44636111;8.5755;2685744;1255684;Wiederholungsmessung;Kloten;NA;NA
7;Schulhaus Hirschengraben;Schulhaus;47 22 24.8;8 32 52.0;47.37355556;8.547777778;2683768;1247560;Wiederholungsmessung;Stadt Zürich;NA;NA
8;Schulhaus Gabler;Schulhaus;47 21 36.7;8 31 48.7;47.36019444;8.530194444;2682461;1246056;Wiederholungsmessung;Stadt Zürich;NA;NA
9;Schulhaus Döltschi;Schulhaus;47 21 49.9;8 29 57.5;47.36386111;8.499305556;2680122;1246432;Wiederholungsmessung;Stadt Zürich;NA;NA
10;Schulhaus Albisriederplatz;Schulhaus;47 22 46.7;8 30 31.0;47.37963889;8.508611111;2680801;1248196;Wiederholungsmessung;Stadt Zürich;NA;NA
11;Schulhaus Kornhaus;Schulhaus;47 23 10.5;8 31 51.0;47.38625;8.530833333;2682469;1248954;Wiederholungsmessung;Stadt Zürich;NA;NA
12;Schulhaus Hutten;Schulhaus;47 22 55.4;8 32 56.2;47.38205556;8.548944444;2683843;1248506;Wiederholungsmessung;Stadt Zürich;NA;NA
13;Schulhaus Pünt;Schulhaus;47 20 56.2;8 42 47.6;47.34894444;8.713222222;2696307;1245014;Wiederholungsmessung;Uster;NA;NA
14;Stadtpark Uster;Öffentlicher Raum;47 20 54.1;8 42 54.5;47.34836111;8.715138889;2696452;1244952;Wiederholungsmessung;Uster;NA;NA
15;Schulhaus Mettlen;Schulhaus;47 20 18.2;8 28 31.3;47.33838889;8.475361111;2678351;1243576;Wiederholungsmessung;Wettswil;NA;NA
16;Bahnhofplatz Winterthur;Bahnhof;47 30 01.2;8 43 27.3;47.50033333;8.72425;2696864;1261857;Wiederholungsmessung;Winterthur;NA;NA
17;Kindergarten Büelhof;Schulhaus;47 29 03.5;8 45 52.1;47.48430556;8.764472222;2699924;1260126;Wiederholungsmessung;Winterthur;NA;NA
18;Aeugst am Albis;Schulhaus;47 16 10.3;8 29 23.9;47.26952778;8.489972222;2679558;1235935;Einmalige Messung;Aeugst am Albis;NA;NA
19;Affoltern-Enetgraben;Schulhaus;47 16 54.3;8 27 01.7;47.28175;8.450472222;2676551;1237255;Einmalige Messung;Affoltern;NA;NA
20;Affoltern-Stigeli;Schulhaus;47 16 44.9;8 27 23.5;47.27913889;8.456527778;2677013;1236970;Einmalige Messung;Affoltern;NA;NA
21;Hausen-Primar;Schulhaus;47 14 31.1;8 32 06.4;47.24197222;8.535111111;2683016;1232919;Einmalige Messung;Hausen;NA;NA
22;Hedingen-Schachen;Schulhaus;47 17 47.8;8 26 41.5;47.29661111;8.444861111;2676106;1238901;Einmalige Messung;Hedingen;NA;NA
23;Kappel am Albis Toemlimatt;Schulhaus;47 13 38.9;8 31 50.6;47.22747222;8.530722222;2682706;1231302;Einmalige Messung;Kappel;NA;NA
24;Knonau-Aeschrain;Schulhaus;47 13 12.3;8 27 47.0;47.22008333;8.463055556;2677593;1230412;Einmalige Messung;Knonau;NA;NA
25;Rifferswil-Primarschule;Schulhaus;47 14 42.6;8 29 41.8;47.24516667;8.494944444;2679970;1233232;Einmalige Messung;Rifferswil;NA;NA
26;Stallikon-Loomatt;Schulhaus;47 20 22.8;8 29 11.6;47.33966667;8.486555556;2679195;1243729;Einmalige Messung;Stallikon;NA;NA
27;Wettswil-Wolfetsloh;Schulhaus;47 19 57.5;8 28 34.8;47.33263889;8.476333333;2678433;1242938;Einmalige Messung;Wettswil;NA;NA
28;Andelfingen Primarschule;Schulhaus;47 35 47.2;8 40 36.4;47.59644444;8.676777778;2693119;1272485;Einmalige Messung;Andelfingen;NA;NA
29;Benken-Primarschule;Schulhaus;47 39 05.6;8 39 16.7;47.65155556;8.654638889;2691359;1278586;Einmalige Messung;Benken;NA;NA
30;Buch am Irchel Primarschulhaus;Schulhaus;47 32 53.9;8 37 06.0;47.54830556;8.618333333;2688804;1267065;Einmalige Messung;Buch;NA;NA
31;Flaach-Sekundarschule;Schulhaus;47 34 36.5;8 36 44.9;47.57680556;8.612472222;2688316;1270227;Einmalige Messung;Flaach;NA;NA
32;Flurlingen-Altes-Schulhaus;Schulhaus;47 41 08.7;8 37 40.5;47.68575;8.627916667;2689294;1282357;Einmalige Messung;Flurlingen;NA;NA
33;Henggart-Langäcker;Schulhaus;47 33 38.1;8 41 01.3;47.56058333;8.683694444;2693702;1268506;Einmalige Messung;Henggart;NA;NA
34;Kleinandelfingen-Zielacker;Schulhaus;47 35 54.2;8 41 09.7;47.59838889;8.686027778;2693811;1272712;Einmalige Messung;Kleinandelfingen;NA;NA
35;Laufen-Uhwiesen_Primarschule;Schulhaus;47 40 19.3;8 37 58.3;47.67202778;8.632861111;2689688;1280837;Einmalige Messung;Laufen-Uhwiesen;NA;NA
36;Marthalen Sekundarschule;Schulhaus;47 37 52.0;8 38 58.6;47.63111111;8.649611111;2691016;1276307;Einmalige Messung;Marthalen;NA;NA
37;Oberstammheim-Primarschule;Schulhaus;47 38 02.5;8 47 48.1;47.63402778;8.796694444;2702064;1276813;Einmalige Messung;Oberstammheim;NA;NA
38;Ossingen-Sekundarschule;Schulhaus;47 36 46.9;8 43 46.7;47.61302778;8.729638889;2697064;1274393;Einmalige Messung;Ossingen;NA;NA
39;Rheinau Primarschule;Schulhaus;47 38 35.9;8 36 05.7;47.64330556;8.601583333;2687387;1277609;Einmalige Messung;Rheinau;NA;NA
40;Truttikon Primarschule;Schulhaus;47 37 49.4;8 43 43.0;47.63038889;8.728611111;2696955;1276322;Einmalige Messung;Truttikon;NA;NA
41;Trüllikon-ZentralSchulhaus;Schulhaus;47 38 17.5;8 40 58.8;47.63819444;8.683;2693513;1277134;Einmalige Messung;Trüllikon;NA;NA
42;Unterstammheim-Sekundarschule;Schulhaus;47 38 06.9;8 47 29.3;47.63525;8.791472222;2701670;1276942;Einmalige Messung;Unterstammheim;NA;NA
43;Bachenbülach-Halden;Schulhaus;47 30 09.0;8 33 02.5;47.5025;8.550694444;2683785;1261899;Einmalige Messung;Bachenbülach;NA;NA
44;Bassersdorf-Geeren;Schulhaus;47 26 35.2;8 37 23.3;47.44311111;8.623138889;2689343;1255376;Einmalige Messung;Bassersdorf;NA;NA
45;Bassersdorf-Mösli;Schulhaus;47 26 45.8;8 37 48.9;47.44605556;8.63025;2689874;1255711;Einmalige Messung;Bassersdorf;NA;NA
46;Bülach-Hohfuri;Schulhaus;47 31 36.2;8 32 38.9;47.52672222;8.544138889;2683253;1264585;Einmalige Messung;Bülach;NA;NA
47;Bülach-Lindenhof;Schulhaus;47 31 03.9;8 32 07.5;47.51775;8.535416667;2682611;1263578;Einmalige Messung;Bülach;NA;NA
48;Bülach-Schwerzgrueb;Schulhaus;47 30 56.3;8 32 43.9;47.51563889;8.545527778;2683375;1263354;Einmalige Messung;Bülach;NA;NA
49;Dietlikon_Fadacher;Schulhaus;47 25 13.2;8 36 56.8;47.42033333;8.615777778;2688825;1252835;Einmalige Messung;Dietlikon;NA;NA
50;Eglisau Städtli;Schulhaus;47 34 33.3;8 31 36.0;47.57591667;8.526666667;2681862;1270035;Einmalige Messung;Eglisau;NA;NA
51;Embrach-Sekundarschule Hungerbühl;Schulhaus;47 30 18.4;8 35 50.7;47.50511111;8.597416667;2687301;1262240;Einmalige Messung;Embrach;NA;NA
52;Glattbrugg-Lättenwiesen;Schulhaus;47 25 37.3;8 33 51.8;47.42702778;8.564388889;2684937;1253523;Einmalige Messung;Glattbrugg;NA;NA
53;Glattfelden-Eichhölzli;Schulhaus;47 33 15.5;8 30 21.4;47.55430556;8.505944444;2680336;1267611;Einmalige Messung;Glattfelden;NA;NA
54;Glattfelden-Hof;Schulhaus;47 33 30.7;8 30 06.3;47.55852778;8.50175;2680013;1268076;Einmalige Messung;Glattfelden;NA;NA
55;Hüntwangen Primarschule;Schulhaus;47 35 45.6;8 29 25.5;47.596;8.490416667;2679105;1272231;Einmalige Messung;Hüntwangen;NA;NA
56;Kloten-Feld;Schulhaus;47 27 15.7;8 35 02.9;47.45436111;8.584138889;2686383;1256583;Einmalige Messung;Kloten;NA;NA
57;Kloten-Hinterwiden;Schulhaus;47 26 45.9;8 34 32.3;47.44608333;8.575638889;2685755;1255653;Einmalige Messung;Kloten;NA;NA
58;Kloten-Spitz;Schulhaus;47 26 39.8;8 35 11.6;47.44438889;8.586555556;2686581;1255477;Einmalige Messung;Kloten;NA;NA
59;Lufingen-Gsteig;Schulhaus;47 28 59.9;8 35 22.0;47.48330556;8.589444444;2686736;1259807;Einmalige Messung;Lufingen;NA;NA
60;Oberembrach Primarschule;Schulhaus;47 29 15.4;8 36 59.9;47.48761111;8.616638889;2688778;1260316;Einmalige Messung;Oberembrach;NA;NA
61;Opfikon-Mettlen;Schulhaus;47 25 52.2;8 34 31.4;47.43116667;8.575388889;2685760;1253995;Einmalige Messung;Opfikon;NA;NA
62;Rafz-Götzen;Schulhaus;47 36 48.4;8 32 21.3;47.61344444;8.53925;2682750;1274221;Einmalige Messung;Rafz;NA;NA
63;Rafz-Schalmenacker;Schulhaus;47 36 23.3;8 32 20.4;47.60647222;8.539;2682742;1273446;Einmalige Messung;Rafz;NA;NA
64;Wallisellen-Mösli;Schulhaus;47 24 46.1;8 36 18.0;47.41280556;8.605;2688025;1251986;Einmalige Messung;Wallisellen;NA;NA
65;Wallisellen-West;Schulhaus;47 25 03.4;8 35 22.4;47.41761111;8.589555556;2686851;1252503;Einmalige Messung;Wallisellen;NA;NA
66;Wil-Schule Dorf;Schulhaus;47 36 16.5;8 30 28.8;47.60458333;8.508;2680414;1273203;Einmalige Messung;Wil;NA;NA
67;Winkel_Schulhaus_Grossacher;Schulhaus;47 29 16.0;8 33 28.6;47.48777778;8.557944444;2684355;1260270;Einmalige Messung;Winkel;NA;NA
68;Bachs;Schulhaus;47 31 24.5;8 26 26.2;47.52347222;8.440611111;2675462;1264118;Einmalige Messung;Bachs;NA;NA
69;Dielsdorf-Früebli;Schulhaus;47 28 51.2;8 27 18.5;47.48088889;8.455138889;2676617;1259398;Einmalige Messung;Dielsdorf;NA;NA
70;Dielsdorf-Gumpenwiesen;Schulhaus;47 28 40.6;8 27 29.5;47.47794444;8.458194444;2676852;1259074;Einmalige Messung;Dielsdorf;NA;NA
71;Dällikon-Leepünt;Schulhaus;47 26 17.3;8 26 22.2;47.43813889;8.4395;2675499;1254630;Einmalige Messung;Dällikon;NA;NA
72;Höri-Weiher;Schulhaus;47 30 30.9;8 30 21.5;47.50858333;8.505972222;2680407;1262528;Einmalige Messung;Höri;NA;NA
73;Niederglatt-Eichi;Schulhaus;47 29 39.7;8 29 57.5;47.49436111;8.499305556;2679926;1260940;Einmalige Messung;Niederglatt;NA;NA
74;Niederglatt-Rietlen;Schulhaus;47 29 28.5;8 29 55.2;47.49125;8.498666667;2679882;1260594;Einmalige Messung;Niederglatt;NA;NA
75;Niederhasli-Rossacker;Schulhaus;47 28 45.5;8 29 06.9;47.47930556;8.48525;2678889;1259252;Einmalige Messung;Niederhasli;NA;NA
76;Niederhasli-Seehalde;Schulhaus;47 28 21.1;8 29 19.3;47.47252778;8.488694444;2679159;1258502;Einmalige Messung;Niederhasli;NA;NA
77;Niederweningen-Schmittenwis;Schulhaus;47 30 23.2;8 22 49.4;47.50644444;8.380388889;2670950;1262169;Einmalige Messung;Niederweningen;NA;NA
78;Oberglatt-Primarschule;Schulhaus;47 28 37.1;8 31 03.1;47.47697222;8.517527778;2681326;1259026;Einmalige Messung;Oberglatt;NA;NA
79;Otelfingen-Ellenberg;Schulhaus;47 27 46.9;8 23 25.4;47.46302778;8.390388889;2671761;1257351;Einmalige Messung;Otelfingen;NA;NA
80;Regensberg-Schulhaus-Chratz;Schulhaus;47 29 01.3;8 26 16.2;47.48369444;8.437833333;2675309;1259693;Einmalige Messung;Regensberg;NA;NA
81;Regensdorf-Ruggenacher;Schulhaus;47 26 02.5;8 27 56.5;47.43402778;8.465694444;2677481;1254199;Einmalige Messung;Regensdorf;NA;NA
82;Rümlang-Worbiger;Schulhaus;47 27 01.5;8 31 40.7;47.45041667;8.527972222;2682154;1256084;Einmalige Messung;Rümlang;NA;NA
83;Schleinikon-Primarschule;Schulhaus;47 29 51.5;8 23 38.3;47.49763889;8.393972222;2671985;1261203;Einmalige Messung;Schleinikon;NA;NA
84;Stadel-Oberstufe;Schulhaus;47 32 11.1;8 28 02.8;47.53641667;8.467444444;2677464;1265584;Einmalige Messung;Stadel;NA;NA
85;Stadel-Primar;Schulhaus;47 32 05.9;8 28 03.2;47.53497222;8.467555556;2677474;1265423;Einmalige Messung;Stadel;NA;NA
86;Steinmaur;Schulhaus;47 29 38.7;8 26 55.7;47.49408333;8.448805556;2676121;1260859;Einmalige Messung;Steinmaur;NA;NA
87;Weiach-Hofwies;Schulhaus;47 33 22.3;8 26 13.2;47.55619444;8.437;2675144;1267753;Einmalige Messung;Weiach;NA;NA
88;Aesch-Nassenmatt;Schulhaus;47 20 12.4;8 26 03.2;47.33677778;8.434222222;2675244;1243357;Einmalige Messung;Aesch;NA;NA
89;Birmensdorf-Brüelmatt2;Schulhaus;47 21 16.1;8 26 24.9;47.35447222;8.44025;2675675;1245330;Einmalige Messung;Birmensdorf;NA;NA
90;Birmensdorf-Reppisch;Schulhaus;47 21 20.9;8 26 12.2;47.35580556;8.436722222;2675406;1245474;Einmalige Messung;Birmensdorf;NA;NA
91;Dietikon-Steinmürli;Schulhaus;47 24 15.8;8 23 41.0;47.40438889;8.394722222;2672168;1250836;Einmalige Messung;Dietikon;NA;NA
92;Dietikon-Wolfsmatt;Schulhaus;47 23 56.0;8 24 30.3;47.39888889;8.408416667;2673209;1250237;Einmalige Messung;Dietikon;NA;NA
93;Oberengstringen-Goldschmied;Schulhaus;47 24 27.6;8 27 54.7;47.40766667;8.465194444;2677482;1251268;Einmalige Messung;Oberengstringen;NA;NA
94;Oberengstringen-Gubrist;Schulhaus;47 24 32.3;8 27 52.9;47.40897222;8.464694444;2677442;1251412;Einmalige Messung;Oberengstringen;NA;NA
95;Oetwil-Geroldswil-Letten;Schulhaus;47 25 32.0;8 24 08.1;47.42555556;8.40225;2672707;1253196;Einmalige Messung;Oetwil;NA;NA
96;Schlieren-Grabenstrasse;Schulhaus;47 23 48.0;8 27 04.3;47.39666667;8.451194444;2676441;1250031;Einmalige Messung;Schlieren;NA;NA
97;Schlieren-Hofacker;Schulhaus;47 23 39.8;8 26 42.1;47.39438889;8.445027778;2675979;1249772;Einmalige Messung;Schlieren;NA;NA
98;Schlieren-Zelgli;Schulhaus;47 24 17.3;8 26 46.2;47.40480556;8.446166667;2676050;1250931;Einmalige Messung;Schlieren;NA;NA
99;Uitikon-Schwerzgrueb;Schulhaus;47 22 09.9;8 27 41.2;47.36941667;8.461444444;2677254;1247012;Einmalige Messung;Uitikon;NA;NA
100;Unterengstringen Büel A;Schulhaus;47 24 50.9;8 26 36.3;47.41413889;8.443416667;2675829;1251966;Einmalige Messung;Unterengstringen;NA;NA
101;Unterengstringen Büel B;Schulhaus;47 24 45.3;8 26 37.8;47.41258333;8.443833333;2675863;1251793;Einmalige Messung;Unterengstringen;NA;NA
102;Urdorf-Embri;Schulhaus;47 23 13.8;8 25 27.3;47.38716667;8.42425;2674420;1248949;Einmalige Messung;Urdorf;NA;NA
103;Urdorf-Feld 1;Schulhaus;47 23 10.6;8 25 27.0;47.38627778;8.424166667;2674415;1248850;Einmalige Messung;Urdorf;NA;NA
104;Urdorf-Weihermatt;Schulhaus;47 22 48.5;8 25 35.8;47.38013889;8.426611111;2674608;1248170;Einmalige Messung;Urdorf;NA;NA
105;Weiningen-Oberstufe;Schulhaus;47 25 07.3;8 25 45.0;47.41869444;8.429166667;2674747;1252459;Einmalige Messung;Weiningen;NA;NA
106;Weiningen-Schlüechti;Schulhaus;47 25 04.1;8 26 02.0;47.41780556;8.433888889;2675105;1252364;Einmalige Messung;Weiningen;NA;NA
107;Bäretswil-im-Letten;Schulhaus;47 20 21.0;8 51 03.3;47.33916667;8.850916667;2706729;1244105;Einmalige Messung;Bäretswil;NA;NA
108;Fischenthal-Schmittenbach;Schulhaus;47 20 37.0;8 55 50.5;47.34361111;8.930694444;2712748;1244711;Einmalige Messung;Fischenthal;NA;NA
109;Gossau-Berg;Schulhaus;47 18 03.5;8 46 04.7;47.30097222;8.767972222;2700533;1239750;Einmalige Messung;Gossau;NA;NA
110;Gossau-Rosswis;Schulhaus;47 18 30.8;8 45 18.5;47.30855556;8.755138889;2699549;1240577;Einmalige Messung;Gossau;NA;NA
111;Grüningen-Aussergass;Schulhaus;47 16 42.3;8 45 29.4;47.27841667;8.758166667;2699834;1237230;Einmalige Messung;Grüningen;NA;NA
112;Grüningen-Zentralschulhaus;Schulhaus;47 16 45.9;8 45 37.4;47.27941667;8.760388889;2700000;1237344;Einmalige Messung;Grüningen;NA;NA
113;Hinwil-Breite;Schulhaus;47 17 57.1;8 50 58.0;47.29919444;8.849444444;2706698;1239660;Einmalige Messung;Hinwil;NA;NA
114;Rüti-Ferrach;Schulhaus;47 15 27.8;8 51 15.1;47.25772222;8.854194444;2707140;1235056;Einmalige Messung;Rüti;NA;NA
115;Rüti-Schanz;Schulhaus;47 15 37.5;8 50 46.7;47.26041667;8.846305556;2706538;1235345;Einmalige Messung;Rüti;NA;NA
116;Tann-Dürnten-Bogenacker;Schulhaus;47 16 00.6;8 51 01.8;47.26683333;8.8505;2706842;1236064;Einmalige Messung;Tann;NA;NA
117;Wald-Burg;Schulhaus;47 16 43.2;8 54 56.3;47.27866667;8.915638889;2711746;1237470;Einmalige Messung;Wald;NA;NA
118;Wald-Neuwies;Schulhaus;47 16 27.3;8 55 15.0;47.27425;8.920833333;2712149;1236987;Einmalige Messung;Wald;NA;NA
119;Wetzikon-Sekundarschule-Zentrum;Schulhaus;47 19 29.3;8 48 03.1;47.32480556;8.800861111;2702974;1242442;Einmalige Messung;Wetzikon;NA;NA
120;Adliswil_Kopfholz;Schulhaus;47 18 29.6;8 31 59.5;47.30822222;8.533194444;2682768;1240282;Einmalige Messung;Adliswil;NA;NA
121;Adliswil_Kronenwiese;Schulhaus;47 18 47.9;8 31 43.7;47.31330556;8.528805556;2682428;1240842;Einmalige Messung;Adliswil;NA;NA
122;Adliswil_Sonnenberg;Schulhaus;47 18 37.2;8 31 15.9;47.31033333;8.521083333;2681849;1240504;Einmalige Messung;Adliswil;NA;NA
123;Hirzel-Schützenmatt;Schulhaus;47 12 55.8;8 36 19.0;47.2155;8.605277778;2688372;1230053;Einmalige Messung;Hirzel;NA;NA
124;Horgen Berghalde;Schulhaus;47 15 22.9;8 35 57.8;47.25636111;8.599388889;2687858;1234588;Einmalige Messung;Horgen;NA;NA
125;Horgen-Baumgärtli;Schulhaus;47 15 32.9;8 35 59.0;47.25913889;8.599722222;2687879;1234898;Einmalige Messung;Horgen;NA;NA
126;Horgen-Rainweg;Schulhaus;47 15 22.8;8 35 56.0;47.25633333;8.598888889;2687821;1234585;Einmalige Messung;Horgen;NA;NA
127;Horgen-Rotweg;Schulhaus;47 15 18.3;8 36 32.8;47.25508333;8.609111111;2688596;1234457;Einmalige Messung;Horgen;NA;NA
128;Horgen-Tannenbach;Schulhaus;47 15 59.0;8 35 03.0;47.26638889;8.584166667;2686690;1235686;Einmalige Messung;Horgen;NA;NA
129;Hütten-Primarschule;Schulhaus;47 10 31.0;8 39 58.4;47.17527778;8.666222222;2693058;1225652;Einmalige Messung;Hütten;NA;NA
130;Kilchberg-Brunnenmoos;Schulhaus;47 19 10.5;8 32 39.3;47.31958333;8.54425;2683586;1241556;Einmalige Messung;Kilchberg;NA;NA
131;Kilchberg-Dorf;Schulhaus;47 19 20.4;8 32 50.3;47.32233333;8.547305556;2683813;1241865;Einmalige Messung;Kilchberg;NA;NA
132;Langnau-Im-Widmer;Schulhaus;47 17 21.7;8 32 27.3;47.28936111;8.540916667;2683381;1238193;Einmalige Messung;Langnau;NA;NA
133;Oberrieden-Kirchstrasse;Schulhaus;47 16 34.8;8 34 35.1;47.27633333;8.576416667;2686088;1236783;Einmalige Messung;Oberrieden;NA;NA
134;Oberrieden-Pünt;Schulhaus;47 16 27.4;8 34 37.5;47.27427778;8.577083333;2686141;1236555;Einmalige Messung;Oberrieden;NA;NA
135;Richterswil- Boden;Schulhaus;47 12 30.1;8 41 53.3;47.20836111;8.698138889;2695418;1229368;Einmalige Messung;Richterswil;NA;NA
136;Rüschlikon-Im-Moos;Schulhaus;47 18 25.7;8 32 50.7;47.30713889;8.547416667;2683845;1240176;Einmalige Messung;Rüschlikon;NA;NA
137;Rüschlikon-Primar-Dorf;Schulhaus;47 18 31.2;8 33 22.1;47.30866667;8.556138889;2684502;1240356;Einmalige Messung;Rüschlikon;NA;NA
138;Samstagern-Altes-Schulhaus;Schulhaus;47 11 35.5;8 40 37.1;47.19319444;8.676972222;2693841;1227656;Einmalige Messung;Samstagern;NA;NA
139;Schoenenberg-Primarschule;Schulhaus;47 11 38.2;8 38 30.6;47.19394444;8.641833333;2691177;1227698;Einmalige Messung;Schoenenberg;NA;NA
140;Thalwil-Im-Feld;Schulhaus;47 17 29.0;8 33 46.0;47.29138889;8.562777778;2685032;1238442;Einmalige Messung;Thalwil;NA;NA
141;Thalwil-Ludretikon;Schulhaus;47 17 45.7;8 33 44.2;47.29602778;8.562277778;2684987;1238957;Einmalige Messung;Thalwil;NA;NA
142;Thalwil-Oggisbüel;Schulhaus;47 17 21.0;8 34 10.7;47.28916667;8.569638889;2685554;1238202;Einmalige Messung;Thalwil;NA;NA
143;Wädenswil Au-Ort;Schulhaus;47 14 42.5;8 38 43.3;47.24513889;8.645361111;2691357;1233393;Einmalige Messung;Wädenswil Au;NA;NA
144;Wädenswil-Au-Steinacher;Schulhaus;47 14 37.9;8 38 30.6;47.24386111;8.641833333;2691092;1233247;Einmalige Messung;Wädenswil;NA;NA
145;Wädenswil-Eidmatt 2;Schulhaus;47 13 40.3;8 40 20.7;47.22786111;8.672416667;2693435;1231505;Einmalige Messung;Wädenswil;NA;NA
146;Wädenswil-Fuhrstrasse;Schulhaus;47 13 35.5;8 40 09.5;47.22652778;8.669305556;2693202;1231353;Einmalige Messung;Wädenswil;NA;NA
147;Wädenswil-Untermosen;Schulhaus;47 13 40.8;8 39 35.5;47.228;8.659861111;2692484;1231505;Einmalige Messung;Wädenswil;NA;NA
148;Erlenbach-Hitzberg;Schulhaus;47 18 08.6;8 35 43.5;47.30238889;8.595416667;2687482;1239701;Einmalige Messung;Erlenbach;NA;NA
149;Herrliberg-Rebacker;Schulhaus;47 17 14.5;8 36 51.4;47.28736111;8.614277778;2688934;1238051;Einmalige Messung;Herrliberg;NA;NA
150;Hombrechtikon_Neues Dörfli;Schulhaus;47 15 03.6;8 46 01.3;47.251;8.767027778;2700556;1234194;Einmalige Messung;Hombrechtikon;NA;NA
151;Küsnacht-Primar-Wiltisgasse;Schulhaus;47 18 57.9;8 34 51.3;47.31608333;8.580916667;2686364;1241207;Einmalige Messung;Küsnacht;NA;NA
152;Küsnacht-Sekundar-Zentrum;Schulhaus;47 19 12.4;8 34 54.9;47.32011111;8.581916667;2686433;1241656;Einmalige Messung;Küsnacht;NA;NA
153;Meilen-Primar-Allmend;Schulhaus;47 16 20.3;8 38 52.2;47.27230556;8.647833333;2691498;1236416;Einmalige Messung;Meilen;NA;NA
154;Meilen-Primar-Feldmeilen;Schulhaus;47 16 38.9;8 37 21.4;47.27747222;8.622611111;2689581;1236961;Einmalige Messung;Meilen;NA;NA
155;Meilen-Primar-Obermeilen;Schulhaus;47 16 03.2;8 39 24.8;47.26755556;8.656888889;2692191;1235899;Einmalige Messung;Meilen;NA;NA
156;Oetwil am See Kindergarten Gusch;Schulhaus;47 16 35.4;8 43 14.8;47.2765;8.720777778;2697009;1236970;Einmalige Messung;Oetwil;NA;NA
157;Stäfa-Kirchbühl nord;Schulhaus;47 14 23.1;8 43 49.5;47.23975;8.730416667;2697806;1232897;Einmalige Messung;Stäfa;NA;NA
158;Stäfa-Obstgarten;Schulhaus;47 14 30.0;8 43 54.4;47.24166667;8.731777778;2697905;1233112;Einmalige Messung;Stäfa;NA;NA
159;Uetikon am See Kantonsschule;Schulhaus;47 15 48.2;8 40 33.8;47.26338889;8.676055556;2693649;1235458;Einmalige Messung;Uetikon;NA;NA
160;Zollikon_Buechholz B;Schulhaus;47 20 20.8;8 34 30.4;47.33911111;8.575111111;2685888;1243761;Einmalige Messung;Zollikon;NA;NA
161;Zumikon-Farlifang;Schulhaus;47 20 01.5;8 37 22.2;47.33375;8.622833333;2689503;1243218;Einmalige Messung;Zumikon;NA;NA
162;Bauma-Sekundarschule;Schulhaus;47 22 11.3;8 52 51.1;47.36980556;8.880861111;2708929;1247552;Einmalige Messung;Bauma;NA;NA
163;Effretikon-Schlimperg;Schulhaus;47 25 51.5;8 41 06.2;47.43097222;8.685055556;2694034;1254099;Einmalige Messung;Effretikon;NA;NA
164;Effretikon-Watt;Schulhaus;47 25 42.7;8 41 39.3;47.42852778;8.69425;2694732;1253838;Einmalige Messung;Effretikon;NA;NA
165;Fehraltorf-Sekundar;Schulhaus;47 23 22.3;8 45 19.3;47.38952778;8.755361111;2699415;1249578;Einmalige Messung;Fehraltorf;NA;NA
166;Hittnau-Primarschule;Schulhaus;47 21 51.3;8 49 30.4;47.36425;8.825111111;2704730;1246859;Einmalige Messung;Hittnau;NA;NA
167;Illnau-Hagen;Schulhaus;47 24 32.0;8 43 18.1;47.40888889;8.721694444;2696838;1251688;Einmalige Messung;Illnau;NA;NA
168;Pfäffikon-Mettlen;Schulhaus;47 21 51.7;8 47 27.5;47.36436111;8.790972222;2702151;1246826;Einmalige Messung;Pfäffikon;NA;NA
169;Pfäffikon-Obermatt;Schulhaus;47 22 05.1;8 46 42.1;47.36808333;8.778361111;2701192;1247224;Einmalige Messung;Pfäffikon;NA;NA
170;Pfäffikon-Steinacker;Schulhaus;47 22 20.1;8 46 45.7;47.37225;8.779361111;2701259;1247688;Einmalige Messung;Pfäffikon;NA;NA
171;Russikon Schule Russikon;Schulhaus;47 23 49.4;8 46 31.8;47.39705556;8.7755;2700921;1250441;Einmalige Messung;Russikon;NA;NA
172;Weisslingen Primarschule;Schulhaus;47 25 56.7;8 45 56.0;47.43241667;8.765555556;2700104;1254359;Einmalige Messung;Weisslingen;NA;NA
173;Wila PrimarSchulhaus Eichhalde;Schulhaus;47 25 14.9;8 50 33.7;47.42080556;8.842694444;2705945;1253170;Einmalige Messung;Wila;NA;NA
174;Benglen-Buechwis;Schulhaus;47 21 36.7;8 38 10.5;47.36019444;8.63625;2690472;1246173;Einmalige Messung;Benglen;NA;NA
175;Dübendorf-Dorf;Schulhaus;47 23 49.5;8 37 11.5;47.39708333;8.619861111;2689172;1250255;Einmalige Messung;Dübendorf;NA;NA
176;Dübendorf-Högler;Schulhaus;47 23 38.2;8 36 32.5;47.39394444;8.609027778;2688360;1249894;Einmalige Messung;Dübendorf;NA;NA
177;Dübendorf-Stägenbuck;Schulhaus;47 24 09.1;8 37 13.8;47.40252778;8.6205;2689211;1250861;Einmalige Messung;Dübendorf;NA;NA
178;Dübendorf_Sonnenberg;Schulhaus;47 23 37.8;8 37 51.9;47.39383333;8.631083333;2690025;1249907;Einmalige Messung;Dübendorf;NA;NA
179;Egg-Bützi;Schulhaus;47 18 03.5;8 41 12.8;47.30097222;8.686888889;2694402;1239649;Einmalige Messung;Egg;NA;NA
180;Esslingen-Vogelsang;Schulhaus;47 17 27.6;8 42 38.7;47.291;8.71075;2696224;1238570;Einmalige Messung;Esslingen;NA;NA
181;Fällanden-Lätten;Schulhaus;47 22 12.6;8 38 37.2;47.37016667;8.643666667;2691015;1247290;Einmalige Messung;Fällanden;NA;NA
182;Greifensee-Breiti;Schulhaus;47 22 01.0;8 40 40.8;47.36694444;8.678;2693614;1246973;Einmalige Messung;Greifensee;NA;NA
183;Maur-Pünt;Schulhaus;47 20 28.3;8 40 01.1;47.34119444;8.666972222;2692826;1244097;Einmalige Messung;Maur;NA;NA
184;Mönchaltdorf Rietwies;Schulhaus;47 18 31.5;8 43 09.6;47.30875;8.719333333;2696841;1240553;Einmalige Messung;Mönchaltdorf;NA;NA
185;Schwerzenbach-Primarschule;Schulhaus;47 22 59.9;8 39 19.0;47.38330556;8.655277778;2691870;1248764;Einmalige Messung;Schwerzenbach;NA;NA
186;Uster-Primar-Niederuster;Schulhaus;47 20 36.4;8 42 11.7;47.34344444;8.70325;2695563;1244391;Einmalige Messung;Uster;NA;NA
187;Uster-Primar-Pünt-A;Schulhaus;47 20 58.0;8 42 47.1;47.34944444;8.713083333;2696295;1245070;Einmalige Messung;Uster;NA;NA
188;Uster-Primar-Pünt-B;Schulhaus;47 20 57.5;8 42 44.9;47.34930556;8.712472222;2696249;1245053;Einmalige Messung;Uster;NA;NA
189;Uster-Sekundar-Freiestrasse;Schulhaus;47 20 52.2;8 43 20.0;47.34783333;8.722222222;2696989;1244902;Einmalige Messung;Uster;NA;NA
190;Altikon-Primarschule;Schulhaus;47 34 18.0;8 46 57.8;47.57166667;8.782722222;2701133;1269862;Einmalige Messung;Altikon;NA;NA
191;Brütten-Chapf;Schulhaus;47 28 31.3;8 40 33.9;47.47536111;8.676083333;2693279;1259023;Einmalige Messung;Brütten;NA;NA
192;Dinhard Primarschule;Schulhaus;47 33 23.7;8 45 52.9;47.55658333;8.764694444;2699805;1268162;Einmalige Messung;Dinhard;NA;NA
193;Dägerlen-Schulhaus Rutschwil;Schulhaus;47 33 29.0;8 43 48.2;47.55805556;8.730055556;2697196;1268282;Einmalige Messung;Dägerlen;NA;NA
194;Elgg-Ritschberg;Schulhaus;47 29 31.9;8 52 01.0;47.49219444;8.866944444;2707630;1261139;Einmalige Messung;Elgg;NA;NA
195;Ellikon an der Thur-Bürgli;Schulhaus;47 33 48.1;8 49 38.1;47.56336111;8.82725;2704500;1268997;Einmalige Messung;Ellikon an der Thur;NA;NA
196;Hagenbuch;Schulhaus;47 31 07.6;8 53 08.9;47.51877778;8.885805556;2708997;1264120;Einmalige Messung;Hagenbuch;NA;NA
197;Hettlingen Primarschule;Schulhaus;47 32 57.2;8 42 22.8;47.54922222;8.706333333;2695426;1267271;Einmalige Messung;Hettlingen;NA;NA
198;Neftenbach-Auenrain;Schulhaus;47 31 29.8;8 39 56.6;47.52494444;8.665722222;2692412;1264523;Einmalige Messung;Neftenbach;NA;NA
199;Rickenbach-Mülihalde;Schulhaus;47 33 10.7;8 47 55.1;47.55297222;8.798638889;2702367;1267804;Einmalige Messung;Rickenbach;NA;NA
200;Rickenbach-Primar Dorf;Schulhaus;47 33 07.0;8 47 36.8;47.55194444;8.793555556;2701986;1267683;Einmalige Messung;Rickenbach;NA;NA
201;Rickenbach-Sulz-Hofacker;Schulhaus;47 32 27.4;8 47 23.9;47.54094444;8.789972222;2701738;1266455;Einmalige Messung;Rickenbach;NA;NA
202;Seuzach-Birch;Schulhaus;47 32 07.6;8 44 09.3;47.53544444;8.735916667;2697678;1265775;Einmalige Messung;Seuzach;NA;NA
203;Turbenthal-Sekundar;Schulhaus;47 26 09.2;8 51 05.0;47.43588889;8.851388889;2706571;1254858;Einmalige Messung;Turbenthal;NA;NA
204;Wiesendangen-Sekundar Nord-Süd;Schulhaus;47 31 20.7;8 47 21.1;47.52241667;8.789194444;2701714;1264395;Einmalige Messung;Wiesendangen;NA;NA
205;Winterthur-Sekundarschule-Büelwiesen;Schulhaus;47 28 58.7;8 45 53.9;47.48297222;8.764972222;2699965;1259978;Einmalige Messung;Winterthur;NA;NA
206;Kresi10_Riedhof;Schulhaus;47 24 29.3;8 29 13.1;47.40813889;8.486972222;2679125;1251342;Einmalige Messung;Stadt Zürich;NA;NA
207;Kresi11_Kantonsschule Oerlikon;Schulhaus;47 24 27.5;8 32 07.5;47.40763889;8.535416667;2682782;1251336;Einmalige Messung;Stadt Zürich;NA;NA
208;Kresi12_Stettbach;Schulhaus;47 24 04.7;8 34 51.7;47.40130556;8.581027778;2686234;1250681;Einmalige Messung;Stadt Zürich;NA;NA
209;Kresi1_ETH_Polyterrasse;Schulhaus;47 22 33.7;8 32 47.3;47.37602778;8.546472222;2683666;1247834;Einmalige Messung;Stadt Zürich;NA;NA
210;Kresi2_Enge;Schulhaus;47 21 53.1;8 31 36.9;47.36475;8.526916667;2682206;1246559;Einmalige Messung;Stadt Zürich;NA;NA
211;Kresi2_Freudenberg;Schulhaus;47 21 53.7;8 31 44.3;47.36491667;8.528972222;2682361;1246580;Einmalige Messung;Stadt Zürich;NA;NA
212;Kresi3_Bachtobel;Schulhaus;47 21 31.9;8 30 41.3;47.35886111;8.511472222;2681049;1245889;Einmalige Messung;Stadt Zürich;NA;NA
213;Kresi3_Rebhügel;Schulhaus;47 21 56.6;8 30 59.9;47.36572222;8.516638889;2681428;1246657;Einmalige Messung;Stadt Zürich;NA;NA
214;Kresi3_Sportanlage_Sihlhölzli;Schulhaus;47 22 08.3;8 31 32.9;47.36897222;8.525805556;2682116;1247028;Einmalige Messung;Stadt Zürich;NA;NA
215;Kresi7_Kantonsschule Hottingen;Schulhaus;47 22 04.9;8 33 10.3;47.36802778;8.552861111;2684161;1246951;Einmalige Messung;Stadt Zürich;NA;NA
216;Kinderhort_In-der-Ey2(N);Schulhaus;47 22 26.7;8 29 13.7;47.37408333;8.487138889;2679188;1247556;Einmalige Messung;Stadt Zürich;NA;NA
217;Kinderhort_In-der-Ey2(S);Schulhaus;47 22 26.0;8 29 14.5;47.37388889;8.487361111;2679205;1247535;Einmalige Messung;Stadt Zürich;NA;NA
218;Schule_In-der-Ey(+Mobilfunk);Schulhaus;47 22 24.9;8 29 13.6;47.37358333;8.487111111;2679187;1247500;Einmalige Messung;Stadt Zürich;NA;NA
219;Schule_In-der-Ey(+Rundfunk);Schulhaus;47 22 25.0;8 29 17.4;47.37361111;8.488166667;2679266;1247505;Einmalige Messung;Stadt Zürich;NA;NA
220;Kreis9_Kappeli;Schulhaus;47 23 14.0;8 29 31.4;47.38722222;8.492055556;2679540;1249022;Einmalige Messung;Stadt Zürich;NA;NA
